start=new Date('2023-04-28T00:00:00.000Z').valueOf();
sats=[{"FILE":"3894932","MEAN_MOTION_DOT":"0.00032431","COUNTRY_CODE":"US","OBJECT_NAME":"STARLINK-2684","EPHEMERIS_TYPE":"0","ECCENTRICITY":"0.00014970","NORAD_CAT_ID":"48471","BSTAR":"0.00218260000000","ELEMENT_SET_NO":"999","MEAN_ELEMENT_THEORY":"SGP4","PERIOD":"95.588","EPOCH":"2023-04-27T14:57:17.689824","ARG_OF_PERICENTER":"90.1604","APOAPSIS":"548.069","MEAN_MOTION":"15.06459168","CENTER_NAME":"EARTH","TLE_LINE1":"1 48471U 21040AV  23117.62312141  .00032431  00000-0  21826-2 0  9999","REF_FRAME":"TEME","TLE_LINE2":"2 48471  53.0541 212.0849 0001497  90.1604 269.9557 15.06459168109953","OBJECT_ID":"2021-040AV","SITE":"AFETR","CLASSIFICATION_TYPE":"U","INCLINATION":"53.0541","TIME_SYSTEM":"UTC","OBJECT_TYPE":"PAYLOAD","MEAN_ANOMALY":"269.9557","REV_AT_EPOCH":"10995","LAUNCH_DATE":"2021-05-09","GP_ID":"230844837","DECAY_DATE":null,"PERIAPSIS":"545.996","RCS_SIZE":"LARGE","MEAN_MOTION_DDOT":"0.0000000000000","SEMIMAJOR_AXIS":"6925.167","RA_OF_ASC_NODE":"212.0849"},{"OBJECT_NAME":"STARLINK-2722","COUNTRY_CODE":"US","FILE":"3894751","MEAN_MOTION_DOT":"0.00028973","MEAN_ELEMENT_THEORY":"SGP4","ECCENTRICITY":"0.00013700","NORAD_CAT_ID":"48472","ELEMENT_SET_NO":"999","BSTAR":"0.00195360000000","EPHEMERIS_TYPE":"0","CENTER_NAME":"EARTH","MEAN_MOTION":"15.06445015","APOAPSIS":"548.024","PERIOD":"95.589","ARG_OF_PERICENTER":"86.9454","EPOCH":"2023-04-27T11:19:40.436256","OBJECT_ID":"2021-040AW","REF_FRAME":"TEME","TLE_LINE2":"2 48472  53.0531 212.7599 0001370  86.9454 273.1692 15.06445015108646","TLE_LINE1":"1 48472U 21040AW  23117.47199579  .00028973  00000-0  19536-2 0  9992","TIME_SYSTEM":"UTC","INCLINATION":"53.0531","SITE":"AFETR","CLASSIFICATION_TYPE":"U","LAUNCH_DATE":"2021-05-09","MEAN_ANOMALY":"273.1692","REV_AT_EPOCH":"10864","OBJECT_TYPE":"PAYLOAD","MEAN_MOTION_DDOT":"0.0000000000000","PERIAPSIS":"546.127","RCS_SIZE":"LARGE","GP_ID":"230835267","DECAY_DATE":null,"RA_OF_ASC_NODE":"212.7599","SEMIMAJOR_AXIS":"6925.211"},{"OBJECT_ID":"2021-040AX","TLE_LINE1":"1 48473U 21040AX  23117.77426162  .00030929  00000-0  20831-2 0  9991","REF_FRAME":"TEME","TLE_LINE2":"2 48473  53.0518 211.4061 0001499  82.9173 277.1986 15.06454305109977","MEAN_MOTION":"15.06454305","CENTER_NAME":"EARTH","PERIOD":"95.589","ARG_OF_PERICENTER":"82.9173","EPOCH":"2023-04-27T18:34:56.203968","APOAPSIS":"548.085","MEAN_ELEMENT_THEORY":"SGP4","EPHEMERIS_TYPE":"0","NORAD_CAT_ID":"48473","ECCENTRICITY":"0.00014990","BSTAR":"0.00208310000000","ELEMENT_SET_NO":"999","OBJECT_NAME":"STARLINK-2658","FILE":"3894943","MEAN_MOTION_DOT":"0.00030929","COUNTRY_CODE":"US","RA_OF_ASC_NODE":"211.4061","SEMIMAJOR_AXIS":"6925.182","PERIAPSIS":"546.009","RCS_SIZE":"LARGE","MEAN_MOTION_DDOT":"0.0000000000000","GP_ID":"230845169","DECAY_DATE":null,"LAUNCH_DATE":"2021-05-09","OBJECT_TYPE":"PAYLOAD","MEAN_ANOMALY":"277.1986","REV_AT_EPOCH":"10997","TIME_SYSTEM":"UTC","INCLINATION":"53.0518","SITE":"AFETR","CLASSIFICATION_TYPE":"U"},{"CENTER_NAME":"EARTH","MEAN_MOTION":"15.06465602","APOAPSIS":"548.308","PERIOD":"95.588","ARG_OF_PERICENTER":"87.6811","EPOCH":"2023-04-27T17:47:08.833344","OBJECT_ID":"2021-040AY","TLE_LINE2":"2 48474  53.0529 211.5507 0001871  87.6811 272.4392 15.06465602109961","REF_FRAME":"TEME","TLE_LINE1":"1 48474U 21040AY  23117.74107446  .00030690  00000-0  20666-2 0  9991","OBJECT_NAME":"STARLINK-2697","COUNTRY_CODE":"US","MEAN_MOTION_DOT":"0.00030690","FILE":"3894943","MEAN_ELEMENT_THEORY":"SGP4","ELEMENT_SET_NO":"999","BSTAR":"0.00206660000000","ECCENTRICITY":"0.00018710","NORAD_CAT_ID":"48474","EPHEMERIS_TYPE":"0","MEAN_MOTION_DDOT":"0.0000000000000","RCS_SIZE":"LARGE","PERIAPSIS":"545.717","DECAY_DATE":null,"GP_ID":"230845427","RA_OF_ASC_NODE":"211.5507","SEMIMAJOR_AXIS":"6925.148","INCLINATION":"53.0529","TIME_SYSTEM":"UTC","CLASSIFICATION_TYPE":"U","SITE":"AFETR","LAUNCH_DATE":"2021-05-09","REV_AT_EPOCH":"10996","MEAN_ANOMALY":"272.4392","OBJECT_TYPE":"PAYLOAD"},{"LAUNCH_DATE":"2021-05-09","REV_AT_EPOCH":"10865","MEAN_ANOMALY":"261.2416","OBJECT_TYPE":"PAYLOAD","INCLINATION":"53.0535","TIME_SYSTEM":"UTC","CLASSIFICATION_TYPE":"U","SITE":"AFETR","RA_OF_ASC_NODE":"212.5773","SEMIMAJOR_AXIS":"6925.377","MEAN_MOTION_DDOT":"0.0000000000000","RCS_SIZE":"LARGE","PERIAPSIS":"545.969","DECAY_DATE":null,"GP_ID":"230836018","MEAN_ELEMENT_THEORY":"SGP4","ELEMENT_SET_NO":"999","BSTAR":"0.00033351000000","NORAD_CAT_ID":"48475","ECCENTRICITY":"0.00018380","EPHEMERIS_TYPE":"0","OBJECT_NAME":"STARLINK-2619","COUNTRY_CODE":"US","MEAN_MOTION_DOT":"0.00004688","FILE":"3894751","OBJECT_ID":"2021-040AZ","TLE_LINE2":"2 48475  53.0535 212.5773 0001838  98.8781 261.2416 15.06390712108655","REF_FRAME":"TEME","TLE_LINE1":"1 48475U 21040AZ  23117.51258087  .00004688  00000-0  33351-3 0  9999","CENTER_NAME":"EARTH","MEAN_MOTION":"15.06390712","APOAPSIS":"548.515","EPOCH":"2023-04-27T12:18:06.987168","PERIOD":"95.593","ARG_OF_PERICENTER":"98.8781"},{"ARG_OF_PERICENTER":"79.2592","PERIOD":"95.589","EPOCH":"2023-04-27T11:14:23.254080","APOAPSIS":"548.094","MEAN_MOTION":"15.06446694","CENTER_NAME":"EARTH","TLE_LINE1":"1 48476U 21040BA  23117.46832470  .00034186  00000-0  22999-2 0  9999","REF_FRAME":"TEME","TLE_LINE2":"2 48476  53.0555 212.7752 0001478  79.2592 280.8563 15.06446694109922","OBJECT_ID":"2021-040BA","FILE":"3894943","MEAN_MOTION_DOT":"0.00034186","COUNTRY_CODE":"US","OBJECT_NAME":"STARLINK-2723","EPHEMERIS_TYPE":"0","NORAD_CAT_ID":"48476","ECCENTRICITY":"0.00014780","ELEMENT_SET_NO":"999","BSTAR":"0.00229990000000","MEAN_ELEMENT_THEORY":"SGP4","GP_ID":"230845420","DECAY_DATE":null,"PERIAPSIS":"546.047","RCS_SIZE":"LARGE","MEAN_MOTION_DDOT":"0.0000000000000","SEMIMAJOR_AXIS":"6925.205","RA_OF_ASC_NODE":"212.7752","SITE":"AFETR","CLASSIFICATION_TYPE":"U","TIME_SYSTEM":"UTC","INCLINATION":"53.0555","OBJECT_TYPE":"PAYLOAD","REV_AT_EPOCH":"10992","MEAN_ANOMALY":"280.8563","LAUNCH_DATE":"2021-05-09"},{"MEAN_ELEMENT_THEORY":"SGP4","EPHEMERIS_TYPE":"0","NORAD_CAT_ID":"48478","ECCENTRICITY":"0.00018100","BSTAR":"0.00187980000000","ELEMENT_SET_NO":"999","OBJECT_NAME":"STARLINK-2728","FILE":"3894751","MEAN_MOTION_DOT":"0.00027831","COUNTRY_CODE":"US","OBJECT_ID":"2021-040BC","TLE_LINE1":"1 48478U 21040BC  23117.51996434  .00027831  00000-0  18798-2 0  9999","REF_FRAME":"TEME","TLE_LINE2":"2 48478  53.0532 212.5469 0001810  99.8570 260.2624 15.06401674108654","MEAN_MOTION":"15.06401674","CENTER_NAME":"EARTH","PERIOD":"95.592","EPOCH":"2023-04-27T12:28:44.918976","ARG_OF_PERICENTER":"99.8570","APOAPSIS":"548.462","LAUNCH_DATE":"2021-05-09","OBJECT_TYPE":"PAYLOAD","REV_AT_EPOCH":"10865","MEAN_ANOMALY":"260.2624","INCLINATION":"53.0532","TIME_SYSTEM":"UTC","SITE":"AFETR","CLASSIFICATION_TYPE":"U","RA_OF_ASC_NODE":"212.5469","SEMIMAJOR_AXIS":"6925.343","PERIAPSIS":"545.955","RCS_SIZE":"LARGE","MEAN_MOTION_DDOT":"0.0000000000000","GP_ID":"230835518","DECAY_DATE":null},{"CLASSIFICATION_TYPE":"U","SITE":"AFETR","TIME_SYSTEM":"UTC","INCLINATION":"53.0536","OBJECT_TYPE":"PAYLOAD","REV_AT_EPOCH":"10994","MEAN_ANOMALY":"276.0021","LAUNCH_DATE":"2021-05-09","DECAY_DATE":null,"GP_ID":"230845453","RCS_SIZE":"LARGE","PERIAPSIS":"546.030","MEAN_MOTION_DDOT":"0.0000000000000","SEMIMAJOR_AXIS":"6925.212","RA_OF_ASC_NODE":"212.2635","MEAN_MOTION_DOT":"0.00036110","FILE":"3894945","COUNTRY_CODE":"US","OBJECT_NAME":"STARLINK-2755","EPHEMERIS_TYPE":"0","BSTAR":"0.00242780000000","ELEMENT_SET_NO":"999","NORAD_CAT_ID":"48479","ECCENTRICITY":"0.00015110","MEAN_ELEMENT_THEORY":"SGP4","EPOCH":"2023-04-27T13:58:56.579520","PERIOD":"95.589","ARG_OF_PERICENTER":"84.1140","APOAPSIS":"548.123","MEAN_MOTION":"15.06444666","CENTER_NAME":"EARTH","TLE_LINE1":"1 48479U 21040BD  23117.58259930  .00036110  00000-0  24278-2 0  9990","TLE_LINE2":"2 48479  53.0536 212.2635 0001511  84.1140 276.0021 15.06444666109946","REF_FRAME":"TEME","OBJECT_ID":"2021-040BD"},{"OBJECT_ID":"2021-040BE","TLE_LINE2":"2 48480  53.0530 221.5985 0001715  87.9417 272.1769 15.06463947109823","REF_FRAME":"TEME","TLE_LINE1":"1 48480U 21040BE  23117.72815763  .00021047  00000-0  14252-2 0  9994","CENTER_NAME":"EARTH","MEAN_MOTION":"15.06463947","APOAPSIS":"548.205","EPOCH":"2023-04-27T17:28:32.819232","PERIOD":"95.588","ARG_OF_PERICENTER":"87.9417","MEAN_ELEMENT_THEORY":"SGP4","BSTAR":"0.00142520000000","ELEMENT_SET_NO":"999","ECCENTRICITY":"0.00017150","NORAD_CAT_ID":"48480","EPHEMERIS_TYPE":"0","OBJECT_NAME":"STARLINK-2690","COUNTRY_CODE":"US","MEAN_MOTION_DOT":"0.00021047","FILE":"3894945","RA_OF_ASC_NODE":"221.5985","SEMIMAJOR_AXIS":"6925.153","MEAN_MOTION_DDOT":"0.0000000000000","RCS_SIZE":"LARGE","PERIAPSIS":"545.830","DECAY_DATE":null,"GP_ID":"230845449","LAUNCH_DATE":"2021-05-09","REV_AT_EPOCH":"10982","MEAN_ANOMALY":"272.1769","OBJECT_TYPE":"PAYLOAD","INCLINATION":"53.0530","TIME_SYSTEM":"UTC","CLASSIFICATION_TYPE":"U","SITE":"AFETR"},{"DECAY_DATE":null,"GP_ID":"230845216","RCS_SIZE":"LARGE","PERIAPSIS":"546.262","MEAN_MOTION_DDOT":"0.0000000000000","SEMIMAJOR_AXIS":"6925.283","RA_OF_ASC_NODE":"220.8082","CLASSIFICATION_TYPE":"U","SITE":"AFETR","INCLINATION":"53.0529","TIME_SYSTEM":"UTC","OBJECT_TYPE":"PAYLOAD","MEAN_ANOMALY":"275.0599","REV_AT_EPOCH":"10985","LAUNCH_DATE":"2021-05-09","PERIOD":"95.591","EPOCH":"2023-04-27T23:14:55.368096","ARG_OF_PERICENTER":"85.0536","APOAPSIS":"548.035","MEAN_MOTION":"15.06421311","CENTER_NAME":"EARTH","TLE_LINE1":"1 48481U 21040BF  23117.96869639 -.00019867  00000-0 -13178-2 0  9997","TLE_LINE2":"2 48481  53.0529 220.8082 0001280  85.0536 275.0599 15.06421311109855","REF_FRAME":"TEME","OBJECT_ID":"2021-040BF","MEAN_MOTION_DOT":"-0.00019867","FILE":"3894946","COUNTRY_CODE":"US","OBJECT_NAME":"STARLINK-2706","EPHEMERIS_TYPE":"0","ELEMENT_SET_NO":"999","BSTAR":"-0.00131780000000","NORAD_CAT_ID":"48481","ECCENTRICITY":"0.00012800","MEAN_ELEMENT_THEORY":"SGP4"}];
